[{"OBJECT_NAME":"ONEWEB-0644","OBJECT_ID":"2023-029N","EPOCH":"2026-02-26T05:59:05.332992","MEAN_MOTION":13.1972542,"ECCENTRICITY":0.0001867,"INCLINATION":87.9238,"RA_OF_ASC_NODE":327.0822,"ARG_OF_PERICENTER":90.4913,"MEAN_ANOMALY":269.6434,"EPHEMERIS_TYPE":0,"CLASSIFICATION_TYPE":"U","NORAD_CAT_ID":55808,"ELEMENT_SET_NO":999,"REV_AT_EPOCH":14427,"BSTAR":7.8447132e-5,"MEAN_MOTION_DOT":4.4e-7,"MEAN_MOTION_DDOT":0},{"OBJECT_NAME":"ONEWEB-0645","OBJECT_ID":"2023-029P","EPOCH":"2026-02-26T06:30:54.294336","MEAN_MOTION":13.19723395,"ECCENTRICITY":0.00014327,"INCLINATION":87.9234,"RA_OF_ASC_NODE":327.0703,"ARG_OF_PERICENTER":94.1258,"MEAN_ANOMALY":266.0038,"EPHEMERIS_TYPE":0,"CLASSIFICATION_TYPE":"U","NORAD_CAT_ID":55809,"ELEMENT_SET_NO":999,"REV_AT_EPOCH":14427,"BSTAR":0.00012852692,"MEAN_MOTION_DOT":6.4e-7,"MEAN_MOTION_DDOT":0},{"OBJECT_NAME":"ONEWEB-0646","OBJECT_ID":"2023-029Q","EPOCH":"2026-02-26T06:55:56.093952","MEAN_MOTION":13.19726459,"ECCENTRICITY":0.00018372,"INCLINATION":87.9242,"RA_OF_ASC_NODE":327.0663,"ARG_OF_PERICENTER":88.3594,"MEAN_ANOMALY":271.775,"EPHEMERIS_TYPE":0,"CLASSIFICATION_TYPE":"U","NORAD_CAT_ID":55810,"ELEMENT_SET_NO":999,"REV_AT_EPOCH":14426,"BSTAR":0.0001386317,"MEAN_MOTION_DOT":6.8e-7,"MEAN_MOTION_DDOT":0},{"OBJECT_NAME":"ONEWEB-0648","OBJECT_ID":"2023-029R","EPOCH":"2026-02-26T05:00:36.858816","MEAN_MOTION":13.14501288,"ECCENTRICITY":0.00015503,"INCLINATION":87.8999,"RA_OF_ASC_NODE":311.8424,"ARG_OF_PERICENTER":110.115,"MEAN_ANOMALY":250.0147,"EPHEMERIS_TYPE":0,"CLASSIFICATION_TYPE":"U","NORAD_CAT_ID":55811,"ELEMENT_SET_NO":999,"REV_AT_EPOCH":14481,"BSTAR":-0.00017267654,"MEAN_MOTION_DOT":-5.1e-7,"MEAN_MOTION_DDOT":0},{"OBJECT_NAME":"ONEWEB-0649","OBJECT_ID":"2023-029S","EPOCH":"2026-02-26T05:43:08.193792","MEAN_MOTION":13.19708165,"ECCENTRICITY":0.00014202,"INCLINATION":87.9234,"RA_OF_ASC_NODE":327.075,"ARG_OF_PERICENTER":89.1412,"MEAN_ANOMALY":270.9883,"EPHEMERIS_TYPE":0,"CLASSIFICATION_TYPE":"U","NORAD_CAT_ID":55812,"ELEMENT_SET_NO":999,"REV_AT_EPOCH":14429,"BSTAR":-0.0024974179,"MEAN_MOTION_DOT":-9.87e-6,"MEAN_MOTION_DDOT":0},{"OBJECT_NAME":"ONEWEB-0650","OBJECT_ID":"2023-029T","EPOCH":"2026-02-26T05:36:19.914912","MEAN_MOTION":13.19726058,"ECCENTRICITY":0.00017582,"INCLINATION":87.9239,"RA_OF_ASC_NODE":327.0775,"ARG_OF_PERICENTER":94.878,"MEAN_ANOMALY":265.2554,"EPHEMERIS_TYPE":0,"CLASSIFICATION_TYPE":"U","NORAD_CAT_ID":55813,"ELEMENT_SET_NO":999,"REV_AT_EPOCH":14426,"BSTAR":0.0001876502,"MEAN_MOTION_DOT":8.8e-7,"MEAN_MOTION_DDOT":0},{"OBJECT_NAME":"ONEWEB-0652","OBJECT_ID":"2023-029U","EPOCH":"2026-02-26T04:33:12.846528","MEAN_MOTION":13.14501608,"ECCENTRICITY":0.00017071,"INCLINATION":87.8996,"RA_OF_ASC_NODE":311.8619,"ARG_OF_PERICENTER":73.5087,"MEAN_ANOMALY":286.623,"EPHEMERIS_TYPE":0,"CLASSIFICATION_TYPE":"U","NORAD_CAT_ID":55814,"ELEMENT_SET_NO":999,"REV_AT_EPOCH":14478,"BSTAR":-0.00048426153,"MEAN_MOTION_DOT":-1.67e-6,"MEAN_MOTION_DDOT":0},{"OBJECT_NAME":"ONEWEB-0653","OBJECT_ID":"2023-029V","EPOCH":"2026-02-26T05:59:59.411616","MEAN_MOTION":13.14501616,"ECCENTRICITY":0.00015069,"INCLINATION":87.9,"RA_OF_ASC_NODE":311.8399,"ARG_OF_PERICENTER":73.9666,"MEAN_ANOMALY":286.1629,"EPHEMERIS_TYPE":0,"CLASSIFICATION_TYPE":"U","NORAD_CAT_ID":55815,"ELEMENT_SET_NO":999,"REV_AT_EPOCH":14482,"BSTAR":0.00011865969,"MEAN_MOTION_DOT":5.7e-7,"MEAN_MOTION_DDOT":0},{"OBJECT_NAME":"ONEWEB-0654","OBJECT_ID":"2023-029W","EPOCH":"2026-02-26T05:53:08.565792","MEAN_MOTION":13.14501155,"ECCENTRICITY":0.00017443,"INCLINATION":87.8999,"RA_OF_ASC_NODE":311.8408,"ARG_OF_PERICENTER":67.8116,"MEAN_ANOMALY":292.3199,"EPHEMERIS_TYPE":0,"CLASSIFICATION_TYPE":"U","NORAD_CAT_ID":55816,"ELEMENT_SET_NO":999,"REV_AT_EPOCH":14484,"BSTAR":0.00027712754,"MEAN_MOTION_DOT":1.16e-6,"MEAN_MOTION_DDOT":0},{"OBJECT_NAME":"ONEWEB-0656","OBJECT_ID":"2023-029X","EPOCH":"2026-02-26T05:17:21.652800","MEAN_MOTION":13.207717,"ECCENTRICITY":0.00017978,"INCLINATION":87.9189,"RA_OF_ASC_NODE":296.583,"ARG_OF_PERICENTER":67.3232,"MEAN_ANOMALY":292.8092,"EPHEMERIS_TYPE":0,"CLASSIFICATION_TYPE":"U","NORAD_CAT_ID":55817,"ELEMENT_SET_NO":999,"REV_AT_EPOCH":14650,"BSTAR":9.7262938e-5,"MEAN_MOTION_DOT":5.3e-7,"MEAN_MOTION_DDOT":0},{"OBJECT_NAME":"ONEWEB-0657","OBJECT_ID":"2023-029Y","EPOCH":"2026-02-26T05:29:31.096896","MEAN_MOTION":13.19724821,"ECCENTRICITY":0.00024034,"INCLINATION":87.9242,"RA_OF_ASC_NODE":327.0768,"ARG_OF_PERICENTER":71.0975,"MEAN_ANOMALY":289.0419,"EPHEMERIS_TYPE":0,"CLASSIFICATION_TYPE":"U","NORAD_CAT_ID":55818,"ELEMENT_SET_NO":999,"REV_AT_EPOCH":14427,"BSTAR":0.00016333399,"MEAN_MOTION_DOT":7.8e-7,"MEAN_MOTION_DDOT":0},{"OBJECT_NAME":"ONEWEB-0658","OBJECT_ID":"2023-029Z","EPOCH":"2026-02-26T05:22:41.478816","MEAN_MOTION":13.1972493,"ECCENTRICITY":0.00019057,"INCLINATION":87.9252,"RA_OF_ASC_NODE":327.0439,"ARG_OF_PERICENTER":92.9466,"MEAN_ANOMALY":267.1885,"EPHEMERIS_TYPE":0,"CLASSIFICATION_TYPE":"U","NORAD_CAT_ID":55819,"ELEMENT_SET_NO":999,"REV_AT_EPOCH":14428,"BSTAR":0.00015660964,"MEAN_MOTION_DOT":7.6e-7,"MEAN_MOTION_DDOT":0},{"OBJECT_NAME":"ONEWEB-0660","OBJECT_ID":"2023-029AA","EPOCH":"2026-02-26T05:21:11.197728","MEAN_MOTION":13.14502671,"ECCENTRICITY":0.00013938,"INCLINATION":87.9006,"RA_OF_ASC_NODE":311.8306,"ARG_OF_PERICENTER":86.6883,"MEAN_ANOMALY":273.4406,"EPHEMERIS_TYPE":0,"CLASSIFICATION_TYPE":"U","NORAD_CAT_ID":55820,"ELEMENT_SET_NO":999,"REV_AT_EPOCH":14482,"BSTAR":0.0005356264,"MEAN_MOTION_DOT":2.11e-6,"MEAN_MOTION_DDOT":0},{"OBJECT_NAME":"ONEWEB-0661","OBJECT_ID":"2023-029AB","EPOCH":"2026-02-26T06:11:24.597312","MEAN_MOTION":13.14502205,"ECCENTRICITY":0.00013796,"INCLINATION":87.8995,"RA_OF_ASC_NODE":311.8813,"ARG_OF_PERICENTER":81.9757,"MEAN_ANOMALY":278.1529,"EPHEMERIS_TYPE":0,"CLASSIFICATION_TYPE":"U","NORAD_CAT_ID":55821,"ELEMENT_SET_NO":999,"REV_AT_EPOCH":14481,"BSTAR":-0.00021652115,"MEAN_MOTION_DOT":-6.7e-7,"MEAN_MOTION_DDOT":0},{"OBJECT_NAME":"ONEWEB-0662","OBJECT_ID":"2023-029AC","EPOCH":"2026-02-26T05:12:02.657952","MEAN_MOTION":13.14501997,"ECCENTRICITY":0.00013999,"INCLINATION":87.8996,"RA_OF_ASC_NODE":311.8965,"ARG_OF_PERICENTER":87.9104,"MEAN_ANOMALY":272.2186,"EPHEMERIS_TYPE":0,"CLASSIFICATION_TYPE":"U","NORAD_CAT_ID":55822,"ELEMENT_SET_NO":999,"REV_AT_EPOCH":14485,"BSTAR":0.00033401172,"MEAN_MOTION_DOT":1.37e-6,"MEAN_MOTION_DDOT":0},{"OBJECT_NAME":"ONEWEB-0663","OBJECT_ID":"2023-029AD","EPOCH":"2026-02-26T04:28:36.120288","MEAN_MOTION":13.2086194,"ECCENTRICITY":0.00015454,"INCLINATION":87.9196,"RA_OF_ASC_NODE":296.6616,"ARG_OF_PERICENTER":98.844,"MEAN_ANOMALY":261.2868,"EPHEMERIS_TYPE":0,"CLASSIFICATION_TYPE":"U","NORAD_CAT_ID":55823,"ELEMENT_SET_NO":999,"REV_AT_EPOCH":14649,"BSTAR":-0.00023041734,"MEAN_MOTION_DOT":-8.1e-7,"MEAN_MOTION_DDOT":0},{"OBJECT_NAME":"ONEWEB-0664","OBJECT_ID":"2023-029AE","EPOCH":"2026-02-26T04:59:11.386752","MEAN_MOTION":13.2077448,"ECCENTRICITY":0.00011462,"INCLINATION":87.9179,"RA_OF_ASC_NODE":296.6511,"ARG_OF_PERICENTER":75.0908,"MEAN_ANOMALY":285.0352,"EPHEMERIS_TYPE":0,"CLASSIFICATION_TYPE":"U","NORAD_CAT_ID":55824,"ELEMENT_SET_NO":999,"REV_AT_EPOCH":14649,"BSTAR":0.0001611129,"MEAN_MOTION_DOT":7.8e-7,"MEAN_MOTION_DDOT":0}]
