ONEWEB-0644             
1 55808U 23029N   26057.24936728  .00000044  00000+0  78447-4 0  9994
2 55808  87.9238 327.0822 0001867  90.4913 269.6434 13.19725420144273
ONEWEB-0645             
1 55809U 23029P   26057.27146174  .00000064  00000+0  12853-3 0  9996
2 55809  87.9234 327.0703 0001432  94.1258 266.0038 13.19723395144279
ONEWEB-0646             
1 55810U 23029Q   26057.28884368  .00000068  00000+0  13863-3 0  9999
2 55810  87.9242 327.0663 0001837  88.3594 271.7750 13.19726459144269
ONEWEB-0648             
1 55811U 23029R   26057.20875994 -.00000051  00000+0 -17268-3 0  9994
2 55811  87.8999 311.8424 0001550 110.1150 250.0147 13.14501288144815
ONEWEB-0649             
1 55812U 23029S   26057.23828928 -.00000987  00000+0 -24974-2 0  9992
2 55812  87.9234 327.0750 0001420  89.1412 270.9883 13.19708165144290
ONEWEB-0650             
1 55813U 23029T   26057.23356383  .00000088  00000+0  18765-3 0  9996
2 55813  87.9239 327.0775 0001758  94.8780 265.2554 13.19726058144268
ONEWEB-0652             
1 55814U 23029U   26057.18973202 -.00000167  00000+0 -48426-3 0  9993
2 55814  87.8996 311.8619 0001707  73.5087 286.6230 13.14501608144786
ONEWEB-0653             
1 55815U 23029V   26057.24999319  .00000057  00000+0  11866-3 0  9992
2 55815  87.9000 311.8399 0001506  73.9666 286.1629 13.14501616144824
ONEWEB-0654             
1 55816U 23029W   26057.24523803  .00000116  00000+0  27713-3 0  9998
2 55816  87.8999 311.8408 0001744  67.8116 292.3199 13.14501155144849
ONEWEB-0656             
1 55817U 23029X   26057.22038950  .00000053  00000+0  97263-4 0  9999
2 55817  87.9189 296.5830 0001797  67.3232 292.8092 13.20771700146506
ONEWEB-0657             
1 55818U 23029Y   26057.22883214  .00000078  00000+0  16333-3 0  9996
2 55818  87.9242 327.0768 0002403  71.0975 289.0419 13.19724821144271
ONEWEB-0658             
1 55819U 23029Z   26057.22409119  .00000076  00000+0  15661-3 0  9996
2 55819  87.9252 327.0439 0001905  92.9466 267.1885 13.19724930144287
ONEWEB-0660             
1 55820U 23029AA  26057.22304627  .00000211  00000+0  53563-3 0  9990
2 55820  87.9006 311.8306 0001393  86.6883 273.4406 13.14502671144824
ONEWEB-0661             
1 55821U 23029AB  26057.25792358 -.00000067  00000+0 -21652-3 0  9991
2 55821  87.8995 311.8813 0001379  81.9757 278.1529 13.14502205144816
ONEWEB-0662             
1 55822U 23029AC  26057.21669743  .00000137  00000+0  33401-3 0  9990
2 55822  87.8996 311.8965 0001399  87.9104 272.2186 13.14501997144855
ONEWEB-0663             
1 55823U 23029AD  26057.18652917 -.00000081  00000+0 -23042-3 0  9992
2 55823  87.9196 296.6616 0001545  98.8440 261.2868 13.20861940146490
ONEWEB-0664             
1 55824U 23029AE  26057.20777068  .00000078  00000+0  16111-3 0  9994
2 55824  87.9179 296.6511 0001146  75.0908 285.0352 13.20774480146493
